[{"OBJECT_NAME":"GEOSCAN 2 (RS92S2)","OBJECT_ID":"2025-155Q","EPOCH":"2026-03-09T23:01:48.939744","MEAN_MOTION":15.28709337,"ECCENTRICITY":0.00085277,"INCLINATION":97.4463,"RA_OF_ASC_NODE":37.5259,"ARG_OF_PERICENTER":140.9505,"MEAN_ANOMALY":219.2352,"EPHEMERIS_TYPE":0,"CLASSIFICATION_TYPE":"U","NORAD_CAT_ID":64890,"ELEMENT_SET_NO":999,"REV_AT_EPOCH":6561,"BSTAR":0.00051551761,"MEAN_MOTION_DOT":0.00014341,"MEAN_MOTION_DDOT":0},{"OBJECT_NAME":"STARLINK-35457","OBJECT_ID":"2025-259M","EPOCH":"2026-03-09T22:42:02.789568","MEAN_MOTION":15.27604667,"ECCENTRICITY":0.00028698,"INCLINATION":43.0058,"RA_OF_ASC_NODE":272.6221,"ARG_OF_PERICENTER":251.7755,"MEAN_ANOMALY":108.2784,"EPHEMERIS_TYPE":0,"CLASSIFICATION_TYPE":"U","NORAD_CAT_ID":66433,"ELEMENT_SET_NO":999,"REV_AT_EPOCH":1953,"BSTAR":0.0014322783,"MEAN_MOTION_DOT":0.00039394,"MEAN_MOTION_DDOT":0}]
